start=new Date('2022-05-14T00:00:00.000Z').valueOf();
sats=[{"SEMIMAJOR_AXIS":"6925.338","INCLINATION":"53.0562","EPOCH":"2022-05-13T12:59:56.621184","MEAN_ANOMALY":"313.1073","RCS_SIZE":"LARGE","OBJECT_TYPE":"PAYLOAD","ELEMENT_SET_NO":"999","REV_AT_EPOCH":"6512","CLASSIFICATION_TYPE":"U","DECAY_DATE":null,"SITE":"AFETR","PERIOD":"95.592","GP_ID":"203446633","COUNTRY_CODE":"US","MEAN_MOTION_DDOT":"0.0000000000000","OBJECT_NAME":"STARLINK-2405","OBJECT_ID":"2021-021BM","MEAN_MOTION":"15.06403313","PERIAPSIS":"545.478","ECCENTRICITY":"0.00024920","NORAD_CAT_ID":"47919","BSTAR":"0.00022365000000","APOAPSIS":"548.929","FILE":"3443919","TLE_LINE1":"1 47919U 21021BM  22133.54162756  .00003051  00000-0  22365-3 0  9993","EPHEMERIS_TYPE":"0","ARG_OF_PERICENTER":"47.0124","REF_FRAME":"TEME","TIME_SYSTEM":"UTC","LAUNCH_DATE":"2021-03-14","RA_OF_ASC_NODE":"69.1607","MEAN_ELEMENT_THEORY":"SGP4","TLE_LINE2":"2 47919  53.0562  69.1607 0002492  47.0124 313.1073 15.06403313 65125","CENTER_NAME":"EARTH","MEAN_MOTION_DOT":"0.00003051"},{"PERIAPSIS":"545.624","MEAN_MOTION":"15.06406762","OBJECT_NAME":"STARLINK-2087","OBJECT_ID":"2021-024A","BSTAR":"0.00003439600000","ECCENTRICITY":"0.00022650","NORAD_CAT_ID":"47977","RCS_SIZE":"LARGE","EPOCH":"2022-05-13T08:25:55.825248","MEAN_ANOMALY":"314.8313","SEMIMAJOR_AXIS":"6925.328","INCLINATION":"53.0549","MEAN_MOTION_DDOT":"0.0000000000000","COUNTRY_CODE":"US","SITE":"AFETR","PERIOD":"95.592","GP_ID":"203441219","CLASSIFICATION_TYPE":"U","DECAY_DATE":null,"REV_AT_EPOCH":"6424","OBJECT_TYPE":"PAYLOAD","ELEMENT_SET_NO":"999","MEAN_ELEMENT_THEORY":"SGP4","MEAN_MOTION_DOT":"0.00000231","CENTER_NAME":"EARTH","TLE_LINE2":"2 47977  53.0549 115.0237 0002265  45.2860 314.8313 15.06406762 64247","TLE_LINE1":"1 47977U 21024A   22133.35134057  .00000231  00000-0  34396-4 0  9997","ARG_OF_PERICENTER":"45.2860","EPHEMERIS_TYPE":"0","FILE":"3443851","APOAPSIS":"548.761","RA_OF_ASC_NODE":"115.0237","REF_FRAME":"TEME","TIME_SYSTEM":"UTC","LAUNCH_DATE":"2021-03-24"},{"PERIAPSIS":"545.781","OBJECT_NAME":"STARLINK-1647","OBJECT_ID":"2021-024B","MEAN_MOTION":"15.06402064","BSTAR":"0.00004993900000","NORAD_CAT_ID":"47978","ECCENTRICITY":"0.00020600","RCS_SIZE":"LARGE","INCLINATION":"53.0539","SEMIMAJOR_AXIS":"6925.342","MEAN_ANOMALY":"307.7110","EPOCH":"2022-05-13T16:54:09.390240","PERIOD":"95.592","GP_ID":"203478048","SITE":"AFETR","MEAN_MOTION_DDOT":"0.0000000000000","COUNTRY_CODE":"US","OBJECT_TYPE":"PAYLOAD","REV_AT_EPOCH":"6415","ELEMENT_SET_NO":"999","DECAY_DATE":null,"CLASSIFICATION_TYPE":"U","MEAN_ELEMENT_THEORY":"SGP4","CENTER_NAME":"EARTH","MEAN_MOTION_DOT":"0.00000462","TLE_LINE2":"2 47978  53.0539 123.4337 0002060  52.4066 307.7110 15.06402064 64159","FILE":"3444395","TLE_LINE1":"1 47978U 21024B   22133.70427535  .00000462  00000-0  49939-4 0  9998","ARG_OF_PERICENTER":"52.4066","EPHEMERIS_TYPE":"0","APOAPSIS":"548.634","RA_OF_ASC_NODE":"123.4337","TIME_SYSTEM":"UTC","LAUNCH_DATE":"2021-03-24","REF_FRAME":"TEME"},{"PERIAPSIS":"546.052","MEAN_MOTION":"15.06395026","OBJECT_ID":"2021-024C","OBJECT_NAME":"STARLINK-2325","BSTAR":"-0.00108520000000","ECCENTRICITY":"0.00016990","NORAD_CAT_ID":"47979","RCS_SIZE":"LARGE","MEAN_ANOMALY":"1.1544","EPOCH":"2022-05-13T22:00:00.999936","INCLINATION":"53.0547","SEMIMAJOR_AXIS":"6925.364","MEAN_MOTION_DDOT":"0.0000000000000","COUNTRY_CODE":"US","GP_ID":"203476797","PERIOD":"95.592","SITE":"AFETR","DECAY_DATE":null,"CLASSIFICATION_TYPE":"U","OBJECT_TYPE":"PAYLOAD","ELEMENT_SET_NO":"999","REV_AT_EPOCH":"130","MEAN_ELEMENT_THEORY":"SGP4","MEAN_MOTION_DOT":"-0.00016407","CENTER_NAME":"EARTH","TLE_LINE2":"2 47979  53.0547  57.4756 0001699  54.1249   1.1544 15.06395026  1302","ARG_OF_PERICENTER":"54.1249","TLE_LINE1":"1 47979U 21024C   22133.91667824 -.00016407  00000-0 -10852-2 0  9997","EPHEMERIS_TYPE":"0","FILE":"3444395","APOAPSIS":"548.405","RA_OF_ASC_NODE":"57.4756","LAUNCH_DATE":"2021-03-24","TIME_SYSTEM":"UTC","REF_FRAME":"TEME"},{"EPHEMERIS_TYPE":"0","TLE_LINE1":"1 47980U 21024D   22133.91667824 -.00015298  00000-0 -10104-2 0  9996","ARG_OF_PERICENTER":"50.7392","FILE":"3444395","APOAPSIS":"548.451","RA_OF_ASC_NODE":"37.4987","REF_FRAME":"TEME","TIME_SYSTEM":"UTC","LAUNCH_DATE":"2021-03-24","MEAN_ELEMENT_THEORY":"SGP4","CENTER_NAME":"EARTH","MEAN_MOTION_DOT":"-0.00015298","TLE_LINE2":"2 47980  53.0554  37.4987 0001763  50.7392 314.5215 15.06394763  1302","RCS_SIZE":"LARGE","EPOCH":"2022-05-13T22:00:00.999936","MEAN_ANOMALY":"314.5215","SEMIMAJOR_AXIS":"6925.365","INCLINATION":"53.0554","MEAN_MOTION_DDOT":"0.0000000000000","COUNTRY_CODE":"US","SITE":"AFETR","PERIOD":"95.592","GP_ID":"203477047","CLASSIFICATION_TYPE":"U","DECAY_DATE":null,"OBJECT_TYPE":"PAYLOAD","REV_AT_EPOCH":"130","ELEMENT_SET_NO":"999","PERIAPSIS":"546.009","MEAN_MOTION":"15.06394763","OBJECT_ID":"2021-024D","OBJECT_NAME":"STARLINK-2312","BSTAR":"-0.00101040000000","NORAD_CAT_ID":"47980","ECCENTRICITY":"0.00017630"},{"TLE_LINE2":"2 47981  53.0536 123.4866 0002219  52.3329 307.7861 15.06395583 64154","CENTER_NAME":"EARTH","MEAN_MOTION_DOT":"0.00000399","MEAN_ELEMENT_THEORY":"SGP4","TIME_SYSTEM":"UTC","LAUNCH_DATE":"2021-03-24","REF_FRAME":"TEME","RA_OF_ASC_NODE":"123.4866","APOAPSIS":"548.764","TLE_LINE1":"1 47981U 21024E   22133.69322376  .00000399  00000-0  45716-4 0  9995","ARG_OF_PERICENTER":"52.3329","EPHEMERIS_TYPE":"0","FILE":"3444395","NORAD_CAT_ID":"47981","ECCENTRICITY":"0.00022190","BSTAR":"0.00004571600000","MEAN_MOTION":"15.06395583","OBJECT_NAME":"STARLINK-2303","OBJECT_ID":"2021-024E","PERIAPSIS":"545.690","DECAY_DATE":null,"CLASSIFICATION_TYPE":"U","OBJECT_TYPE":"PAYLOAD","ELEMENT_SET_NO":"999","REV_AT_EPOCH":"6415","COUNTRY_CODE":"US","MEAN_MOTION_DDOT":"0.0000000000000","PERIOD":"95.592","GP_ID":"203478297","SITE":"AFETR","MEAN_ANOMALY":"307.7861","EPOCH":"2022-05-13T16:38:14.532864","INCLINATION":"53.0536","SEMIMAJOR_AXIS":"6925.362","RCS_SIZE":"LARGE"},{"OBJECT_TYPE":"PAYLOAD","REV_AT_EPOCH":"130","ELEMENT_SET_NO":"999","DECAY_DATE":null,"CLASSIFICATION_TYPE":"U","GP_ID":"203478548","PERIOD":"95.593","SITE":"AFETR","MEAN_MOTION_DDOT":"0.0000000000000","COUNTRY_CODE":"US","INCLINATION":"53.0555","SEMIMAJOR_AXIS":"6925.397","MEAN_ANOMALY":"196.4504","EPOCH":"2022-05-13T22:00:00.999936","RCS_SIZE":"LARGE","ECCENTRICITY":"0.00019870","NORAD_CAT_ID":"47982","BSTAR":"-0.00248910000000","OBJECT_ID":"2021-024F","OBJECT_NAME":"STARLINK-2317","MEAN_MOTION":"15.06384115","PERIAPSIS":"545.886","LAUNCH_DATE":"2021-03-24","TIME_SYSTEM":"UTC","REF_FRAME":"TEME","RA_OF_ASC_NODE":"52.4786","APOAPSIS":"548.638","FILE":"3444395","ARG_OF_PERICENTER":"41.2109","TLE_LINE1":"1 47982U 21024F   22133.91667824 -.00037149  00000-0 -24891-2 0  9995","EPHEMERIS_TYPE":"0","TLE_LINE2":"2 47982  53.0555  52.4786 0001987  41.2109 196.4504 15.06384115  1306","MEAN_MOTION_DOT":"-0.00037149","CENTER_NAME":"EARTH","MEAN_ELEMENT_THEORY":"SGP4"},{"TLE_LINE2":"2 47985  53.0551  57.4987 0001561  62.7308 232.5421 15.06392713  1303","MEAN_MOTION_DOT":"-0.00009963","CENTER_NAME":"EARTH","MEAN_ELEMENT_THEORY":"SGP4","REF_FRAME":"TEME","LAUNCH_DATE":"2021-03-24","TIME_SYSTEM":"UTC","RA_OF_ASC_NODE":"57.4987","APOAPSIS":"548.317","ARG_OF_PERICENTER":"62.7308","TLE_LINE1":"1 47985U 21024J   22133.91667824 -.00009963  00000-0 -65103-3 0  9993","EPHEMERIS_TYPE":"0","FILE":"3444395","ECCENTRICITY":"0.00015610","NORAD_CAT_ID":"47985","BSTAR":"-0.00065103000000","MEAN_MOTION":"15.06392713","OBJECT_NAME":"STARLINK-2308","OBJECT_ID":"2021-024J","PERIAPSIS":"546.155","CLASSIFICATION_TYPE":"U","DECAY_DATE":null,"ELEMENT_SET_NO":"999","OBJECT_TYPE":"PAYLOAD","REV_AT_EPOCH":"130","COUNTRY_CODE":"US","MEAN_MOTION_DDOT":"0.0000000000000","SITE":"AFETR","GP_ID":"203477297","PERIOD":"95.593","EPOCH":"2022-05-13T22:00:00.999936","MEAN_ANOMALY":"232.5421","SEMIMAJOR_AXIS":"6925.371","INCLINATION":"53.0551","RCS_SIZE":"LARGE"},{"ECCENTRICITY":"0.00022950","NORAD_CAT_ID":"47988","BSTAR":"-0.00032666000000","MEAN_MOTION":"15.87553023","OBJECT_NAME":"STARLINK-2306","OBJECT_ID":"2021-024M","PERIAPSIS":"307.613","CLASSIFICATION_TYPE":"U","DECAY_DATE":null,"ELEMENT_SET_NO":"999","OBJECT_TYPE":"PAYLOAD","REV_AT_EPOCH":"130","COUNTRY_CODE":"US","MEAN_MOTION_DDOT":"0.0000000000000","SITE":"AFETR","GP_ID":"203477547","PERIOD":"90.706","EPOCH":"2022-05-13T22:00:00.999936","MEAN_ANOMALY":"14.0991","SEMIMAJOR_AXIS":"6687.283","INCLINATION":"53.0446","RCS_SIZE":"LARGE","TLE_LINE2":"2 47988  53.0446  49.3924 0002295 158.1671  14.0991 15.87553023  1305","MEAN_MOTION_DOT":"-0.00088634","CENTER_NAME":"EARTH","MEAN_ELEMENT_THEORY":"SGP4","REF_FRAME":"TEME","LAUNCH_DATE":"2021-03-24","TIME_SYSTEM":"UTC","RA_OF_ASC_NODE":"49.3924","APOAPSIS":"310.682","TLE_LINE1":"1 47988U 21024M   22133.91667824 -.00088634  00000-0 -32666-3 0  9996","EPHEMERIS_TYPE":"0","ARG_OF_PERICENTER":"158.1671","FILE":"3444395"},{"APOAPSIS":"548.386","FILE":"3444395","EPHEMERIS_TYPE":"0","TLE_LINE1":"1 47989U 21024N   22133.91667824 -.00011564  00000-0 -75909-3 0  9992","ARG_OF_PERICENTER":"80.4196","REF_FRAME":"TEME","LAUNCH_DATE":"2021-03-24","TIME_SYSTEM":"UTC","RA_OF_ASC_NODE":"32.4865","MEAN_ELEMENT_THEORY":"SGP4","TLE_LINE2":"2 47989  53.0565  32.4865 0001600  80.4196 212.3400 15.06379020  1305","CENTER_NAME":"EARTH","MEAN_MOTION_DOT":"-0.00011564","SEMIMAJOR_AXIS":"6925.413","INCLINATION":"53.0565","EPOCH":"2022-05-13T22:00:00.999936","MEAN_ANOMALY":"212.3400","RCS_SIZE":"LARGE","OBJECT_TYPE":"PAYLOAD","ELEMENT_SET_NO":"999","REV_AT_EPOCH":"130","CLASSIFICATION_TYPE":"U","DECAY_DATE":null,"SITE":"AFETR","PERIOD":"95.593","GP_ID":"203477799","MEAN_MOTION_DDOT":"0.0000000000000","COUNTRY_CODE":"US","OBJECT_NAME":"STARLINK-2305","OBJECT_ID":"2021-024N","MEAN_MOTION":"15.06379020","PERIAPSIS":"546.170","NORAD_CAT_ID":"47989","ECCENTRICITY":"0.00016000","BSTAR":"-0.00075909000000"}];
